ONEWEB-0706             
1 61611U 24188T   25091.56109255  .00000010  00000+0 -65025-5 0  9992
2 61611  87.9294 124.3024 0002456 123.3134 236.8236 13.23003467 25530
ONEWEB-0707             
1 61612U 24188U   25091.56707858 -.00000456  00000+0 -13440-2 0  9992
2 61612  87.8805 124.2873 0001229 103.5124 256.6140 13.10367383 23522
ONEWEB-0708             
1 61613U 24188V   25091.58528260  .00000013  00000+0  14556-5 0  9992
2 61613  87.8866 124.2503 0001519 117.5364 242.5917 13.10366390 25461
